ONEWEB-0346             
1 49212U 21083AC  24021.86273660  .00000000  00000+0 -33737-4 0  9996
2 49212  87.9243 150.0492 0001107 111.0986 249.0264 13.18686143114351
ONEWEB-0348             
1 49213U 21083AD  24021.69897825 -.00000090  00000+0 -25298-3 0  9995
2 49213  87.9168  89.1125 0001203  82.8469 277.2801 13.20771355120980
ONEWEB-0350             
1 49214U 21083AE  24021.85867081 -.00000130  00000+0 -38955-3 0  9994
2 49214  87.9019 134.8448 0001340  90.3297 269.7986 13.13468604115769
ONEWEB-0351             
1 49215U 21083AF  24021.69266007 -.00000115  00000+0 -31540-3 0  9994
2 49215  87.9170  89.1187 0002233  96.9366 263.2021 13.20770523120940
ONEWEB-0352             
1 49216U 21083AG  24021.83965057  .00000727  00000+0  19569-2 0  9995
2 49216  87.9017 134.8759 0001866 106.5750 253.5584 13.13470480115851
ONEWEB-0354             
1 49217U 21083AH  24021.71790888  .00000040  00000+0  67413-4 0  9992
2 49217  87.9176  89.0932 0001815  86.5308 273.6033 13.20769882120989
ONEWEB-0355             
1 49218U 21083AJ  24021.86977555 -.00000285  00000+0 -81400-3 0  9991
2 49218  87.9018 134.8688 0001717  99.7516 260.3807 13.13468704115730
ONEWEB-0357             
1 49219U 21083AK  24021.71475174 -.00000007  00000+0 -48044-4 0  9996
2 49219  87.9173  89.1172 0001792 100.1276 260.0060 13.20770108120989
